start=new Date('2022-08-21T00:00:00.000Z').valueOf();
sats=[{"COUNTRY_CODE":"US","RA_OF_ASC_NODE":"20.5512","CLASSIFICATION_TYPE":"U","CENTER_NAME":"EARTH","MEAN_ANOMALY":"79.2659","REV_AT_EPOCH":"130","MEAN_MOTION_DDOT":"0.0000000000000","REF_FRAME":"TEME","EPHEMERIS_TYPE":"0","OBJECT_TYPE":"PAYLOAD","NORAD_CAT_ID":"51728","RCS_SIZE":"LARGE","SEMIMAJOR_AXIS":"6917.983","OBJECT_ID":"2022-016Q","MEAN_MOTION":"15.08806336","INCLINATION":"53.2186","BSTAR":"0.00232430000000","TLE_LINE2":"2 51728  53.2186  20.5512 0001749  53.2390  79.2659 15.08806336  1300","PERIAPSIS":"538.638","ECCENTRICITY":"0.00017490","SITE":"AFETR","APOAPSIS":"541.058","TLE_LINE1":"1 51728U 22016Q   22232.91667824  .00036863  00000-0  23243-2 0  9990","ELEMENT_SET_NO":"999","EPOCH":"2022-08-20T22:00:00.999936","PERIOD":"95.440","ARG_OF_PERICENTER":"53.2390","LAUNCH_DATE":"2022-02-21","DECAY_DATE":null,"FILE":"3541760","MEAN_ELEMENT_THEORY":"SGP4","MEAN_MOTION_DOT":"0.00036863","OBJECT_NAME":"STARLINK-3448","TIME_SYSTEM":"UTC","GP_ID":"210621120"},{"REV_AT_EPOCH":"2894","MEAN_ANOMALY":"114.0214","CENTER_NAME":"EARTH","MEAN_MOTION_DDOT":"0.0000000000000","CLASSIFICATION_TYPE":"U","RA_OF_ASC_NODE":"20.1758","COUNTRY_CODE":"US","OBJECT_ID":"2022-016R","SEMIMAJOR_AXIS":"6917.883","MEAN_MOTION":"15.08839294","EPHEMERIS_TYPE":"0","REF_FRAME":"TEME","RCS_SIZE":"LARGE","NORAD_CAT_ID":"51729","OBJECT_TYPE":"PAYLOAD","PERIAPSIS":"538.593","ECCENTRICITY":"0.00016690","INCLINATION":"53.2187","TLE_LINE2":"2 51729  53.2187  20.1758 0001669  51.3948 114.0214 15.08839294 28942","BSTAR":"-0.00061997000000","MEAN_MOTION_DOT":"-0.00010141","MEAN_ELEMENT_THEORY":"SGP4","FILE":"3541743","DECAY_DATE":null,"GP_ID":"210597804","TIME_SYSTEM":"UTC","OBJECT_NAME":"STARLINK-3523","APOAPSIS":"540.902","SITE":"AFETR","LAUNCH_DATE":"2022-02-21","EPOCH":"2022-08-21T00:00:00.999648","PERIOD":"95.438","ARG_OF_PERICENTER":"51.3948","ELEMENT_SET_NO":"999","TLE_LINE1":"1 51729U 22016R   22233.00001157 -.00010141  00000-0 -61997-3 0  9995"},{"MEAN_MOTION":"15.08811406","SEMIMAJOR_AXIS":"6917.968","OBJECT_ID":"2022-016S","NORAD_CAT_ID":"51730","OBJECT_TYPE":"PAYLOAD","RCS_SIZE":"LARGE","EPHEMERIS_TYPE":"0","REF_FRAME":"TEME","MEAN_MOTION_DDOT":"0.0000000000000","MEAN_ANOMALY":"118.5155","CENTER_NAME":"EARTH","REV_AT_EPOCH":"130","CLASSIFICATION_TYPE":"U","RA_OF_ASC_NODE":"20.5635","COUNTRY_CODE":"US","OBJECT_NAME":"STARLINK-3530","GP_ID":"210621619","TIME_SYSTEM":"UTC","MEAN_MOTION_DOT":"0.00037164","MEAN_ELEMENT_THEORY":"SGP4","FILE":"3541760","DECAY_DATE":null,"ELEMENT_SET_NO":"999","TLE_LINE1":"1 51730U 22016S   22232.91667824  .00037164  00000-0  23427-2 0  9992","LAUNCH_DATE":"2022-02-21","PERIOD":"95.439","EPOCH":"2022-08-20T22:00:00.999936","ARG_OF_PERICENTER":"53.9819","SITE":"AFETR","APOAPSIS":"541.081","ECCENTRICITY":"0.00018040","PERIAPSIS":"538.585","TLE_LINE2":"2 51730  53.2187  20.5635 0001804  53.9819 118.5155 15.08811406  1307","BSTAR":"0.00234270000000","INCLINATION":"53.2187"},{"CLASSIFICATION_TYPE":"U","COUNTRY_CODE":"US","RA_OF_ASC_NODE":"20.5542","MEAN_MOTION_DDOT":"0.0000000000000","REV_AT_EPOCH":"130","MEAN_ANOMALY":"60.1533","CENTER_NAME":"EARTH","RCS_SIZE":"LARGE","NORAD_CAT_ID":"51731","OBJECT_TYPE":"PAYLOAD","EPHEMERIS_TYPE":"0","REF_FRAME":"TEME","MEAN_MOTION":"15.08820612","OBJECT_ID":"2022-016T","SEMIMAJOR_AXIS":"6917.940","TLE_LINE2":"2 51731  53.2189  20.5542 0001586  52.3877  60.1533 15.08820612  1302","BSTAR":"0.00099437000000","INCLINATION":"53.2189","ECCENTRICITY":"0.00015860","PERIAPSIS":"538.707","LAUNCH_DATE":"2022-02-21","ARG_OF_PERICENTER":"52.3877","PERIOD":"95.439","EPOCH":"2022-08-20T22:00:00.999936","ELEMENT_SET_NO":"999","TLE_LINE1":"1 51731U 22016T   22232.91667824  .00015564  00000-0  99437-3 0  9998","APOAPSIS":"540.902","SITE":"AFETR","TIME_SYSTEM":"UTC","GP_ID":"210621845","OBJECT_NAME":"STARLINK-3514","MEAN_ELEMENT_THEORY":"SGP4","MEAN_MOTION_DOT":"0.00015564","DECAY_DATE":null,"FILE":"3541760"},{"PERIAPSIS":"538.717","ECCENTRICITY":"0.00015850","INCLINATION":"53.2177","BSTAR":"0.00230160000000","TLE_LINE2":"2 51732  53.2177  20.5701 0001585  53.7396 138.7899 15.08817629  1308","FILE":"3541760","DECAY_DATE":null,"MEAN_ELEMENT_THEORY":"SGP4","MEAN_MOTION_DOT":"0.00036510","TIME_SYSTEM":"UTC","GP_ID":"210620621","OBJECT_NAME":"STARLINK-3518","APOAPSIS":"540.910","SITE":"AFETR","ARG_OF_PERICENTER":"53.7396","PERIOD":"95.439","EPOCH":"2022-08-20T22:00:00.999936","LAUNCH_DATE":"2022-02-21","TLE_LINE1":"1 51732U 22016U   22232.91667824  .00036510  00000-0  23016-2 0  9992","ELEMENT_SET_NO":"999","REV_AT_EPOCH":"130","CENTER_NAME":"EARTH","MEAN_ANOMALY":"138.7899","MEAN_MOTION_DDOT":"0.0000000000000","COUNTRY_CODE":"US","RA_OF_ASC_NODE":"20.5701","CLASSIFICATION_TYPE":"U","OBJECT_ID":"2022-016U","SEMIMAJOR_AXIS":"6917.949","MEAN_MOTION":"15.08817629","REF_FRAME":"TEME","EPHEMERIS_TYPE":"0","RCS_SIZE":"LARGE","OBJECT_TYPE":"PAYLOAD","NORAD_CAT_ID":"51732"},{"CLASSIFICATION_TYPE":"U","RA_OF_ASC_NODE":"20.5521","COUNTRY_CODE":"US","REV_AT_EPOCH":"130","MEAN_ANOMALY":"107.4146","CENTER_NAME":"EARTH","MEAN_MOTION_DDOT":"0.0000000000000","EPHEMERIS_TYPE":"0","REF_FRAME":"TEME","RCS_SIZE":"LARGE","NORAD_CAT_ID":"51733","OBJECT_TYPE":"PAYLOAD","OBJECT_ID":"2022-016V","SEMIMAJOR_AXIS":"6917.937","MEAN_MOTION":"15.08821365","INCLINATION":"53.2187","TLE_LINE2":"2 51733  53.2187  20.5521 0001651  45.1171 107.4146 15.08821365  1300","BSTAR":"0.00233360000000","PERIAPSIS":"538.660","ECCENTRICITY":"0.00016510","APOAPSIS":"540.945","SITE":"AFETR","LAUNCH_DATE":"2022-02-21","PERIOD":"95.439","EPOCH":"2022-08-20T22:00:00.999936","ARG_OF_PERICENTER":"45.1171","ELEMENT_SET_NO":"999","TLE_LINE1":"1 51733U 22016V   22232.91667824  .00037028  00000-0  23336-2 0  9993","MEAN_ELEMENT_THEORY":"SGP4","MEAN_MOTION_DOT":"0.00037028","FILE":"3541760","DECAY_DATE":null,"GP_ID":"210621371","TIME_SYSTEM":"UTC","OBJECT_NAME":"STARLINK-3525"},{"EPHEMERIS_TYPE":"0","REF_FRAME":"TEME","RCS_SIZE":"LARGE","NORAD_CAT_ID":"51734","OBJECT_TYPE":"PAYLOAD","OBJECT_ID":"2022-016W","SEMIMAJOR_AXIS":"6917.944","MEAN_MOTION":"15.08819264","CLASSIFICATION_TYPE":"U","COUNTRY_CODE":"US","RA_OF_ASC_NODE":"20.5574","REV_AT_EPOCH":"130","MEAN_ANOMALY":"202.3648","CENTER_NAME":"EARTH","MEAN_MOTION_DDOT":"0.0000000000000","APOAPSIS":"540.952","SITE":"AFETR","LAUNCH_DATE":"2022-02-21","PERIOD":"95.439","ARG_OF_PERICENTER":"50.1393","EPOCH":"2022-08-20T22:00:00.999936","ELEMENT_SET_NO":"999","TLE_LINE1":"1 51734U 22016W   22232.91667824  .00031964  00000-0  20185-2 0  9996","MEAN_MOTION_DOT":"0.00031964","MEAN_ELEMENT_THEORY":"SGP4","FILE":"3541760","DECAY_DATE":null,"TIME_SYSTEM":"UTC","GP_ID":"210622119","OBJECT_NAME":"STARLINK-3450","INCLINATION":"53.2177","TLE_LINE2":"2 51734  53.2177  20.5574 0001653  50.1393 202.3648 15.08819264  1309","BSTAR":"0.00201850000000","PERIAPSIS":"538.665","ECCENTRICITY":"0.00016530"},{"CLASSIFICATION_TYPE":"U","COUNTRY_CODE":"US","RA_OF_ASC_NODE":"20.1928","REV_AT_EPOCH":"2892","MEAN_ANOMALY":"246.4179","CENTER_NAME":"EARTH","MEAN_MOTION_DDOT":"0.0000000000000","EPHEMERIS_TYPE":"0","REF_FRAME":"TEME","RCS_SIZE":"LARGE","NORAD_CAT_ID":"51735","OBJECT_TYPE":"PAYLOAD","OBJECT_ID":"2022-016X","SEMIMAJOR_AXIS":"6917.837","MEAN_MOTION":"15.08854288","INCLINATION":"53.2189","TLE_LINE2":"2 51735  53.2189  20.1928 0001498  58.9928 246.4179 15.08854288 28929","BSTAR":"-0.00100870000000","PERIAPSIS":"538.665","ECCENTRICITY":"0.00014980","APOAPSIS":"540.738","SITE":"AFETR","LAUNCH_DATE":"2022-02-21","PERIOD":"95.437","EPOCH":"2022-08-21T00:00:00.999648","ARG_OF_PERICENTER":"58.9928","ELEMENT_SET_NO":"999","TLE_LINE1":"1 51735U 22016X   22233.00001157 -.00016312  00000-0 -10087-2 0  9991","MEAN_MOTION_DOT":"-0.00016312","MEAN_ELEMENT_THEORY":"SGP4","DECAY_DATE":null,"FILE":"3541737","TIME_SYSTEM":"UTC","GP_ID":"210597343","OBJECT_NAME":"STARLINK-3517"},{"OBJECT_NAME":"STARLINK-3447","GP_ID":"210597592","TIME_SYSTEM":"UTC","MEAN_MOTION_DOT":"-0.00015633","MEAN_ELEMENT_THEORY":"SGP4","FILE":"3541743","DECAY_DATE":null,"ELEMENT_SET_NO":"999","TLE_LINE1":"1 51736U 22016Y   22233.00001157 -.00015633  00000-0 -96609-3 0  9992","LAUNCH_DATE":"2022-02-21","PERIOD":"95.437","ARG_OF_PERICENTER":"55.3092","EPOCH":"2022-08-21T00:00:00.999648","SITE":"AFETR","APOAPSIS":"540.783","ECCENTRICITY":"0.00015250","PERIAPSIS":"538.673","TLE_LINE2":"2 51736  53.2166  20.1782 0001525  55.3092 330.1013 15.08845542 28940","BSTAR":"-0.00096609000000","INCLINATION":"53.2166","MEAN_MOTION":"15.08845542","SEMIMAJOR_AXIS":"6917.863","OBJECT_ID":"2022-016Y","NORAD_CAT_ID":"51736","OBJECT_TYPE":"PAYLOAD","RCS_SIZE":"LARGE","EPHEMERIS_TYPE":"0","REF_FRAME":"TEME","MEAN_MOTION_DDOT":"0.0000000000000","MEAN_ANOMALY":"330.1013","CENTER_NAME":"EARTH","REV_AT_EPOCH":"2894","CLASSIFICATION_TYPE":"U","RA_OF_ASC_NODE":"20.1782","COUNTRY_CODE":"US"},{"CLASSIFICATION_TYPE":"U","RA_OF_ASC_NODE":"20.1806","COUNTRY_CODE":"US","MEAN_ANOMALY":"268.7686","CENTER_NAME":"EARTH","REV_AT_EPOCH":"2886","MEAN_MOTION_DDOT":"0.0000000000000","EPHEMERIS_TYPE":"0","REF_FRAME":"TEME","NORAD_CAT_ID":"51737","OBJECT_TYPE":"PAYLOAD","RCS_SIZE":"LARGE","SEMIMAJOR_AXIS":"6917.832","OBJECT_ID":"2022-016Z","MEAN_MOTION":"15.08855844","INCLINATION":"53.2168","BSTAR":"-0.00124540000000","TLE_LINE2":"2 51737  53.2168  20.1806 0001541  56.6694 268.7686 15.08855844 28869","PERIAPSIS":"538.631","ECCENTRICITY":"0.00015410","SITE":"AFETR","APOAPSIS":"540.763","ELEMENT_SET_NO":"999","TLE_LINE1":"1 51737U 22016Z   22233.00001157 -.00020062  00000-0 -12454-2 0  9990","LAUNCH_DATE":"2022-02-21","ARG_OF_PERICENTER":"56.6694","PERIOD":"95.437","EPOCH":"2022-08-21T00:00:00.999648","MEAN_ELEMENT_THEORY":"SGP4","MEAN_MOTION_DOT":"-0.00020062","DECAY_DATE":null,"FILE":"3541737","OBJECT_NAME":"STARLINK-3509","GP_ID":"210597347","TIME_SYSTEM":"UTC"}];
